ONEWEB-0504             
1 54122U 22138K   25182.77885044  .00000033  00000+0  49696-4 0  9994
2 54122  87.9210  14.6144 0001902  99.2795 260.8553 13.19723829130611
ONEWEB-0505             
1 54123U 22138L   25182.77570920  .00000104  00000+0  22780-3 0  9992
2 54123  87.9209  14.6046 0002206 103.5476 256.5902 13.19725400130598
ONEWEB-0506             
1 54124U 22138M   25182.90205607 -.00000039  00000+0 -12972-3 0  9996
2 54124  87.9209  14.5763 0001954  95.0656 265.0700 13.19723801130604
ONEWEB-0507             
1 54125U 22138N   25182.77098042  .00000093  00000+0  20036-3 0  9993
2 54125  87.9216  14.6558 0002044  93.2209 266.9158 13.19726451130635
ONEWEB-0508             
1 54126U 22138P   25182.54034506  .00000026  00000+0  32413-4 0  9993
2 54126  87.9216  14.6846 0002209  95.3611 264.7774 13.19724110130583
ONEWEB-0509             
1 54127U 22138Q   25182.89415819 -.00000031  00000+0 -11066-3 0  9990
2 54127  87.9209  14.5751 0001944  93.5206 266.6149 13.19723522131477
ONEWEB-0510             
1 54128U 22138R   25182.90786631  .00000374  00000+0  88911-3 0  9997
2 54128  87.9271 344.2061 0001441  78.3252 281.8043 13.20771764133947
ONEWEB-0511             
1 54129U 22138S   25182.89101559 -.00000122  00000+0 -33617-3 0  9992
2 54129  87.9209  14.5816 0001609  97.1172 263.0144 13.19725167130631
